NORAD_CAT_ID,EPOCH,MEAN_MOTION,ECCENTRICITY,INCLINATION,RA_OF_ASC_NODE,ARG_OF_PERICENTER,MEAN_ANOMALY,APOAPSIS,PERIAPSIS,BSTAR,COUNTRY_CODE,RCS_SIZE,NAME,LINE1,LINE2
61381,2025-08-09T13:14:01.271904,14.17110711,0.006814,88.987,309.3677,130.0079,230.7117,884.294,785.991,0.0012337,PRC,SMALL,0 CZ-6A DEB,1 61381U 24140WW  25221.55140361  .00002555  00000-0  12337-2 0  9992,2 61381  88.9870 309.3677 0068140 130.0079 230.7117 14.17110711 47887
61382,2025-08-09T04:22:32.724480,14.48413972,0.0083577,88.9519,305.6588,284.563,74.6317,790.25,671.421,0.00062635,PRC,SMALL,0 CZ-6A DEB,1 61382U 24140WX  25221.18232320  .00002466  00000-0  62635-3 0  9997,2 61382  88.9519 305.6588 0083577 284.5630  74.6317 14.48413972 48873
61383,2025-08-08T16:22:48.602208,14.09993271,0.0099453,89.0023,310.5524,146.6903,214.0594,931.376,787.417,0.00095226,PRC,SMALL,0 CZ-6A DEB,1 61383U 24140WY  25220.68250697  .00001772  00000-0  95226-3 0  9990,2 61383  89.0023 310.5524 0099453 146.6903 214.0594 14.09993271 47533
61385,2025-08-08T14:48:18.890784,14.80657851,0.0109447,88.8603,299.9117,221.4929,137.7949,703.922,550.579,0.0018438,PRC,SMALL,0 CZ-6A DEB,1 61385U 24140XA  25220.61688531  .00015737  00000-0  18438-2 0  9992,2 61385  88.8603 299.9117 0109447 221.4929 137.7949 14.80657851 49648
61386,2025-08-09T11:50:26.100960,14.42212138,0.0015703,88.799,299.5317,250.3152,109.6357,762.396,740.006,0.0019872,PRC,SMALL,0 CZ-6A DEB,1 61386U 24140XB  25221.49335765  .00006571  00000-0  19872-2 0  9997,2 61386  88.7990 299.5317 0015703 250.3152 109.6357 14.42212138 48660
61387,2025-08-08T05:09:41.560704,14.23403536,0.0043562,89.0151,310.2969,105.81,254.7902,845.197,782.537,0.00082749,PRC,SMALL,0 CZ-6A DEB,1 61387U 24140XC  25220.21506436  .00001910  00000-0  82749-3 0  9998,2 61387  89.0151 310.2969 0043562 105.8100 254.7902 14.23403536 47928
61388,2025-08-09T04:25:17.609376,14.46478498,0.0071523,88.8446,300.9991,285.8537,73.4791,788.066,686.285,0.00048697,PRC,SMALL,0 CZ-6A DEB,1 61388U 24140XD  25221.18423159  .00001823  00000-0  48697-3 0  9993,2 61388  88.8446 300.9991 0071523 285.8537  73.4791 14.46478498 48843
61389,2025-08-08T19:04:22.750464,14.20057677,0.0057859,89.0468,311.7462,129.8429,230.7872,866.837,783.482,0.0012468,PRC,SMALL,0 CZ-6A DEB,1 61389U 24140XE  25220.79470776  .00002712  00000-0  12468-2 0  9991,2 61389  89.0468 311.7462 0057859 129.8429 230.7872 14.20057677 47938
61390,2025-08-08T16:57:46.032192,14.29476422,0.0021499,88.6839,295.5241,77.98,282.3803,808.902,778.065,0.0006336,PRC,SMALL,0 CZ-6A DEB,1 61390U 24140XF  25220.70678278  .00001636  00000-0  63360-3 0  9993,2 61390  88.6839 295.5241 0021499  77.9800 282.3803 14.29476422 48196
61393,2025-08-09T05:03:14.980320,14.12912445,0.0090365,89.0038,310.3778,145.5447,215.1644,914.736,784.113,0.00094267,PRC,SMALL,0 CZ-6A DEB,1 61393U 24140XJ  25221.21059005  .00001838  00000-0  94267-3 0  9998,2 61393  89.0038 310.3778 0090365 145.5447 215.1644 14.12912445 47630
61395,2025-08-07T12:04:27.793344,14.17408874,0.0058648,88.9729,308.8379,108.9243,251.8315,876.43,791.833,0.00017761,PRC,SMALL,0 CZ-6A DEB,1 61395U 24140XL  25219.50309946  .00000381  00000-0  17761-3 0  9997,2 61395  88.9729 308.8379 0058648 108.9243 251.8315 14.17408874 47599
61396,2025-08-08T17:08:10.223808,14.65677699,0.014992,89.0732,310.0202,180.0958,180.0256,780.642,569.163,0.00074835,PRC,SMALL,0 CZ-6A DEB,1 61396U 24140XM  25220.71400722  .00004829  00000-0  74835-3 0  9993,2 61396  89.0732 310.0202 0149920 180.0958 180.0256 14.65677699 48767
61397,2025-08-08T22:59:27.261888,15.12632662,0.0048933,88.9817,305.3082,201.2426,158.6786,561.972,494.382,0.0092423,PRC,SMALL,0 CZ-6A DEB,1 61397U 24140XN  25220.95795442  .00169654  00000-0  92423-2 0  9996,2 61397  88.9817 305.3082 0048933 201.2426 158.6786 15.12632662 49440
61398,2025-08-08T16:38:50.544384,14.06299555,0.010414,88.9737,309.662,131.6333,229.3827,947.568,796.561,0.00026568,PRC,SMALL,0 CZ-6A DEB,1 61398U 24140XP  25220.69364056  .00000475  00000-0  26568-3 0  9994,2 61398  88.9737 309.6620 0104140 131.6333 229.3827 14.06299555 46860
61399,2025-08-09T04:48:41.631840,14.07264293,0.0108882,88.9621,308.8903,122.2596,238.9194,947.656,789.845,0.00016579,PRC,SMALL,0 CZ-6A DEB,1 61399U 24140XQ  25221.20048185  .00000309  00000-0  16579-3 0  9992,2 61399  88.9621 308.8903 0108882 122.2596 238.9194 14.07264293 46979
61401,2025-08-09T05:27:34.866432,14.22425697,0.0055353,89.008,310.0089,130.1189,230.4873,856.991,777.335,0.0015435,PRC,SMALL,0 CZ-6A DEB,1 61401U 24140XS  25221.22748688  .00003505  00000-0  15435-2 0  9993,2 61401  89.0080 310.0089 0055353 130.1189 230.4873 14.22425697 47420
61402,2025-08-08T01:40:03.338976,15.05660373,0.0220074,89.7257,339.1924,118.665,243.691,701.94,397.023,0.0011427,PRC,SMALL,0 CZ-6A DEB,1 61402U 24140XT  25220.06948309  .00028776  00000-0  11427-2 0  9991,2 61402  89.7257 339.1924 0220074 118.6650 243.6910 15.05660373 49819
61403,2025-08-08T18:15:54.848736,14.24843684,0.0036349,88.9567,307.5803,122.702,237.7687,835.145,782.896,0.00084728,PRC,SMALL,0 CZ-6A DEB,1 61403U 24140XU  25220.76105149  .00002004  00000-0  84728-3 0  9997,2 61403  88.9567 307.5803 0036349 122.7020 237.7687 14.24843684 47469
61404,2025-08-08T12:26:11.305824,14.53588847,0.0105828,89.1045,312.1067,259.8867,99.039,789.007,638.899,0.00028241,PRC,SMALL,0 CZ-6A DEB,1 61404U 24140XV  25220.51818641  .00001286  00000-0  28241-3 0  9998,2 61404  89.1045 312.1067 0105828 259.8867  99.0390 14.53588847 48424
61405,2025-08-09T04:34:14.460096,14.49363518,0.004897,88.8921,303.0811,237.6844,121.9615,762.528,692.933,0.0012855,PRC,SMALL,0 CZ-6A DEB,1 61405U 24140XW  25221.19044514  .00005001  00000-0  12855-2 0  9996,2 61405  88.8921 303.0811 0048970 237.6844 121.9615 14.49363518 48137
61406,2025-08-09T04:59:20.814720,14.02236999,0.0131282,89.0094,311.2439,166.024,194.4632,981.427,790.695,0.00017372,PRC,SMALL,0 CZ-6A DEB,1 61406U 24140XX  25221.20787980  .00000301  00000-0  17372-3 0  9998,2 61406  89.0094 311.2439 0131282 166.0240 194.4632 14.02236999 46664
61408,2025-08-08T23:13:40.920672,14.30794136,0.0020974,89.0278,310.3305,85.1892,275.1698,804.112,774.047,0.0014438,PRC,SMALL,0 CZ-6A DEB,1 61408U 24140XZ  25220.96783473  .00003805  00000-0  14438-2 0  9996,2 61408  89.0278 310.3305 0020974  85.1892 275.1698 14.30794136 47529
61409,2025-08-08T18:14:27.665088,14.73728837,0.0112288,89.0394,308.2678,212.6309,146.794,728.1,570.283,0.0013559,PRC,SMALL,0 CZ-6A DEB,1 61409U 24140YA  25220.76004242  .00009819  00000-0  13559-2 0  9999,2 61409  89.0394 308.2678 0112288 212.6309 146.7940 14.73728837 48816
61410,2025-08-08T12:36:02.335392,14.18825351,0.0049129,89.0075,310.0801,111.1826,249.4623,864.74,793.921,0.00010243,PRC,SMALL,0 CZ-6A DEB,1 61410U 24140YB  25220.52502703  .00000230  00000-0  10243-3 0  9996,2 61410  89.0075 310.0801 0049129 111.1826 249.4623 14.18825351 47134
61413,2025-08-08T18:18:43.704576,15.80677717,0.0012699,89.2436,315.8573,63.3255,296.9322,337.042,320.008,0.0078674,PRC,SMALL,0 CZ-6A DEB,1 61413U 24140YE  25220.76300584  .01729451  00000-0  78674-2 0  9993,2 61413  89.2436 315.8573 0012699  63.3255 296.9322 15.80677717 50335
61414,2025-08-08T15:42:25.834752,14.52147394,0.0089032,88.9926,307.2236,252.0814,107.0672,781.83,655.461,0.00045167,PRC,SMALL,0 CZ-6A DEB,1 61414U 24140YF  25220.65446568  .00001942  00000-0  45167-3 0  9994,2 61414  88.9926 307.2236 0089032 252.0814 107.0672 14.52147394 48361
61415,2025-08-08T18:08:14.109504,14.0532739,0.013009,88.9961,310.473,174.1214,186.1532,969.769,781.046,0.0010199,PRC,SMALL,0 CZ-6A DEB,1 61415U 24140YG  25220.75571886  .00001795  00000-0  10199-2 0  9990,2 61415  88.9961 310.4730 0130090 174.1214 186.1532 14.05327390 46821
61416,2025-08-08T15:40:57.025920,14.50123403,0.0075223,88.8891,302.781,250.1398,109.1691,778.681,671.814,0.00043327,PRC,SMALL,0 CZ-6A DEB,1 61416U 24140YH  25220.65343780  .00001759  00000-0  43327-3 0  9990,2 61416  88.8891 302.7810 0075223 250.1398 109.1691 14.50123403 51208
61417,2025-08-08T23:15:37.687680,14.82379635,0.012514,88.9735,304.8318,170.6333,189.727,709.422,534.227,0.0025467,PRC,SMALL,0 CZ-6A DEB,1 61417U 24140YJ  25220.96918620  .00023448  00000-0  25467-2 0  9999,2 61417  88.9735 304.8318 0125140 170.6333 189.7270 14.82379635 49199
61418,2025-08-09T05:02:47.160384,14.27281987,0.0049111,88.9897,308.748,34.3456,326.0897,836.089,765.576,0.00033654,PRC,SMALL,0 CZ-6A DEB,1 61418U 24140YK  25221.21026806  .00000848  00000-0  33654-3 0  9992,2 61418  88.9897 308.7480 0049111  34.3456 326.0897 14.27281987 51215
61419,2025-08-08T18:34:10.007616,14.70036857,0.0119434,88.9834,305.8394,228.8877,130.1983,745.023,576.882,0.0013479,PRC,SMALL,0 CZ-6A DEB,1 61419U 24140YL  25220.77372694  .00009052  00000-0  13479-2 0  9990,2 61419  88.9834 305.8394 0119434 228.8877 130.1983 14.70036857 49738
61420,2025-08-09T12:38:13.962336,14.32850336,0.0047034,88.9897,308.3824,187.7162,172.3318,815.899,748.543,0.00076683,PRC,SMALL,0 CZ-6A DEB,1 61420U 24140YM  25221.52655049  .00002132  00000-0  76683-3 0  9993,2 61420  88.9897 308.3824 0047034 187.7162 172.3318 14.32850336 47834
61421,2025-08-08T17:59:40.033824,14.17037136,0.0070529,89.1591,316.7013,139.3801,221.268,886.269,784.516,0.0009074,PRC,SMALL,0 CZ-6A DEB,1 61421U 24140YN  25220.74976891  .00001883  00000-0  90740-3 0  9990,2 61421  89.1591 316.7013 0070529 139.3801 221.2680 14.17037136 47205
61422,2025-08-09T04:54:47.207520,13.90920998,0.019982,88.746,301.2084,199.88,159.451,1071.346,779.468,0.00042574,PRC,SMALL,0 CZ-6A DEB,1 61422U 24140YP  25221.20471305  .00000640  00000-0  42574-3 0  9995,2 61422  88.7460 301.2084 0199820 199.8800 159.4510 13.90920998 49011
61423,2025-08-09T03:44:31.989120,14.51179092,0.0129988,88.8297,299.9524,292.2877,66.459,814.093,629.511,0.00045636,PRC,SMALL,0 CZ-6A DEB,1 61423U 24140YQ  25221.15592580  .00002037  00000-0  45636-3 0  9993,2 61423  88.8297 299.9524 0129988 292.2877  66.4590 14.51179092 51032
